[{"OBJECT_NAME":"OBJECT D","OBJECT_ID":"2024-173D","EPOCH":"2026-03-09T23:30:29.956896","MEAN_MOTION":15.27005733,"ECCENTRICITY":0.00090093,"INCLINATION":97.3606,"RA_OF_ASC_NODE":149.3901,"ARG_OF_PERICENTER":241.6081,"MEAN_ANOMALY":118.425,"EPHEMERIS_TYPE":0,"CLASSIFICATION_TYPE":"U","NORAD_CAT_ID":61230,"ELEMENT_SET_NO":999,"REV_AT_EPOCH":8130,"BSTAR":0.00072064626,"MEAN_MOTION_DOT":0.00019078,"MEAN_MOTION_DDOT":0},{"OBJECT_NAME":"STARLINK-34070","OBJECT_ID":"2025-095Z","EPOCH":"2026-03-09T08:00:38.871072","MEAN_MOTION":15.27579271,"ECCENTRICITY":0.00010315,"INCLINATION":42.9995,"RA_OF_ASC_NODE":178.1983,"ARG_OF_PERICENTER":242.774,"MEAN_ANOMALY":117.3007,"EPHEMERIS_TYPE":0,"CLASSIFICATION_TYPE":"U","NORAD_CAT_ID":63913,"ELEMENT_SET_NO":999,"REV_AT_EPOCH":4772,"BSTAR":0.0010984871,"MEAN_MOTION_DOT":0.00030089,"MEAN_MOTION_DDOT":0}]
